#aV2014  6 18  0  0  0.00000000     288 DD+AD WGS84 FIT  NGA
## 1797 259200.00000000   300.00000000 56826 0.0000000000000
+   32     1  2  3  4  5  6  7  8  9 10 11 12 13 14 15 16 17
+         18 19 20 21 22 23 24 25 26 27 28 29 30 31 32  0  0
+          0  0  0  0  0  0  0  0  0  0  0  0  0  0  0  0  0
+          0  0  0  0  0  0  0  0  0  0  0  0  0  0  0  0  0
+          0  0  0  0  0  0  0  0  0  0  0  0  0  0  0  0  0
++         2  2  2  2  2  2  2  2  2  2  2  2  2  2  2  2  2
++         2  2  2  2  2  2  2  2  2  2  2  2  2  2  2  0  0
++         0  0  0  0  0  0  0  0  0  0  0  0  0  0  0  0  0
++         0  0  0  0  0  0  0  0  0  0  0  0  0  0  0  0  0
++         0  0  0  0  0  0  0  0  0  0  0  0  0  0  0  0  0
%c cc cc ccc ccc cccc cccc cccc cccc ccccc ccccc ccccc ccccc
%c cc cc ccc ccc cccc cccc cccc cccc ccccc ccccc ccccc ccccc
%f  0.0000000  0.000000000  0.00000000000  0.000000000000000
%f  0.0000000  0.000000000  0.00000000000  0.000000000000000
%i    0    0    0    0      0      0      0      0         0
%i    0    0    0    0      0      0      0      0         0
/*      NGA, ST. LOUIS,MO.                                  
/*   EPHEMERIS COMPUTED FROM  1 DAYS OF DATA                
/*   EPOCHA SMOOTHER                                       
/* CCCCCCCCCCCCCCCCCCCCCCCCCCCCCCCCCCCCCCCCCCCCCCCCCCCCCCCCC
*  2014  6 18 21 20  0.00000000
P  1  13238.647762 -16745.838787  15679.420335     15.615089                    
V  1   -555.427241  20124.044991  22057.696296      0.009808                    
P  2 -14109.023315  -8997.319970 -20422.871854    501.876575                    
V  2   3444.826212 -26373.299097   8621.395604      0.021455                    
P  3  23841.376539   4099.203273  10578.257060    379.649292                    
V  3  11060.565724   9490.032598 -27042.958352      0.047856                    
P  4  -7282.889642 -21823.151565 -13311.583067      7.312169                    
V  4   4782.891671 -16146.805905  24673.392377      0.001314                    
P  5 -23269.985291   -245.963802 -12986.410748   -364.741735                    
V  5  14118.877584  -8709.613203 -25037.155143      0.028442                    
P  6  -8577.688742 -19724.599499 -15596.378971      6.267435                    
V  6   4341.466361 -19404.371584  22151.912007     -0.026133                    
P  7   6335.668192 -25321.777023  -3698.353140    359.136600                    
V  7   1943.906263   5171.600764 -31794.107817      0.042628                    
P  8   3137.756148 -25576.227861   5023.764985     14.267142                    
V  8   3599.455747  -5552.308618 -32094.300919      0.003895                    
P  9  -2496.949925 -24757.694013   8451.594587     26.870898                    
V  9   3723.097844 -11127.796481 -29849.623763      0.610092                    
P 10 -10415.943080 -12547.050819 -21360.204505   -130.254709                    
V 10  24267.179141 -10267.801982  -5473.133771     -0.015024                    
P 11  14321.194416  -9595.064374  19678.176939   -498.392445                    
V 11   6552.544936  25651.172346   7754.465214     -0.030677                    
P 12 -23748.049586  11180.609185  -3240.031687    212.429750                    
V 12  -4526.136941   -570.321307  32138.127026      0.024872                    
P 13   5290.254635 -14882.098843 -21453.333089    -11.839358                    
V 13  20015.529544  18013.825704  -7771.068304     -0.039063                    
P 14  11806.087306  21001.392816  11574.347264    162.379162                    
V 14 -12014.591534  -7975.846363  27103.887046     -0.034963                    
P 15 -20315.808159   1182.629494  17160.789154   -186.066110                    
V 15 -16775.949821 -14159.933380 -18530.492040     -0.021896                    
P 16  23250.792808    991.845199 -13186.269933   -212.391040                    
V 16 -15094.781505   6714.853056 -25868.739834      0.020770                    
P 17 -12662.352876 -20651.074253  11409.574765   -102.335453                    
V 17  12028.186111   7426.301517  27194.360699     -0.029387                    
P 18  -8042.214072  18180.836973  17918.989105    326.283925                    
V 18 -21161.926794   6736.998162 -17100.189337      0.023913                    
P 19  20705.454911   3671.534863  16345.427124   -463.445058                    
V 19  14329.737429  15206.672503 -20933.327705     -0.021367                    
P 20  21315.510719 -14970.030256  -5204.791139    201.428453                    
V 20   7452.227786    549.944389  30071.453372      0.040301                    
P 21  -2475.186666  26195.146485    805.792548   -367.769228                    
V 21  -4113.380166   -193.266191 -31382.710226     -0.021970                    
P 22   6053.583583  14948.168777  21318.503999    243.246253                    
V 22 -24598.862676  10451.755738   -513.468633      0.028668                    
P 23  15068.499574  -6990.768851 -20698.593129    -29.777697                    
V 23  20525.631004  16737.573119   8818.421766     -0.030569                    
P 24 -14456.358196  12541.705001  18354.545265    -30.393857                    
V 24   1031.128530 -23433.021556  16895.544375     -0.006291                    
P 25 -15524.766486  16626.256798 -13672.571299     24.870808                    
V 25 -16628.041476   4995.015799  25224.518899      0.001071                    
P 26 -21864.978086 -11752.300474   9177.556784     42.337168                    
V 26  -7750.255238 -10013.744822 -28932.285156     -0.122977                    
P 27  23020.552899  11444.980778   6793.424122     -9.034370                    
V 27   5356.960481   7214.634195 -30204.976396      0.030573                    
P 28   -764.049659 -15318.557243  22274.496972    363.296865                    
V 28  25406.128252  -8482.965342  -5230.338167      0.028806                    
P 29  -5048.976556  14901.346017 -21370.274234    540.656632                    
V 29 -21120.779458 -17118.345181  -6888.220647      0.027495                    
P 30    625.465994 -25721.592911   6507.645020    -29.159616                    
V 30   4395.955778  -7555.437071 -30277.972898     -0.069155                    
P 31   8534.245226  18466.296377 -16753.521455    333.965732                    
V 31  -5010.603636  21128.160990  20849.554914     -0.001567                    
P 32  25358.958189  -3941.795275   5676.612241   -403.987706                    
V 32  -5805.484133   5647.117053  30677.947724      0.083136                    
EOF
